{"type": "FeatureCollection", "features": [ {"type": "Feature", "properties": {"norad_id": 34031, "name": "COSMOS 2251 DEB", "group": "cosmos-2251-debris", "lat": -53.14679638987514, "lon": 98.01686788380046, "alt_km": 693.3055465169837, "timestamp": "2025-12-20T16:47:36.678318+00:00", "meta": {"OBJECT_NAME": "COSMOS 2251 DEB", "OBJECT_ID": "1993-036HS", "EPOCH": "2025-12-19T03:29:25.717056", "MEAN_MOTION": 14.59757227, "ECCENTRICITY": 0.00229414, "INCLINATION": 74.0127, "RA_OF_ASC_NODE": 123.4727, "ARG_OF_PERICENTER": 243.4611, "MEAN_ANOMALY": 175.3292, "EPHEMERIS_TYPE": 0, "CLASSIFICATION_TYPE": "U", "NORAD_CAT_ID": 34031, "ELEMENT_SET_NO": 999, "REV_AT_EPOCH": 88659, "BSTAR": 0.00097665147, "MEAN_MOTION_DOT": 4.652e-05, "MEAN_MOTION_DDOT": 0}, "tle": {"line1": "1 34031U 93036HS  25353.14543654  .00004652  00000+0  97665-3 0  9994", "line2": "2 34031  74.0127 123.4727 0022941 243.4611 175.3292 14.59757227886593"}}, "geometry": {"type": "Point", "coordinates": [98.01686788380046, -53.14679638987514]}}, {"type": "Feature", "properties": {"norad_id": 34035, "name": "COSMOS 2251 DEB", "group": "cosmos-2251-debris", "lat": -60.13458852001421, "lon": -175.99400706121838, "alt_km": 725.483516266092, "timestamp": "2025-12-20T16:47:36.678328+00:00", "meta": {"OBJECT_NAME": "COSMOS 2251 DEB", "OBJECT_ID": "1993-036HW", "EPOCH": "2025-12-20T09:46:19.106112", "MEAN_MOTION": 14.52031838, "ECCENTRICITY": 0.0045144, "INCLINATION": 74.0655, "RA_OF_ASC_NODE": 334.7189, "ARG_OF_PERICENTER": 334.6649, "MEAN_ANOMALY": 181.5033, "EPHEMERIS_TYPE": 0, "CLASSIFICATION_TYPE": "U", "NORAD_CAT_ID": 34035, "ELEMENT_SET_NO": 999, "REV_AT_EPOCH": 88077, "BSTAR": 0.0011747, "MEAN_MOTION_DOT": 4.787e-05, "MEAN_MOTION_DDOT": 0}, "tle": {"line1": "1 34035U 93036HW  25354.40716558  .00004787  00000+0  11747-2 0  9998", "line2": "2 34035  74.0655 334.7189 0045144 334.6649 181.5033 14.52031838880778"}}, "geometry": {"type": "Point", "coordinates": [-175.99400706121838, -60.13458852001421]}}, {"type": "Feature", "properties": {"norad_id": 34036, "name": "COSMOS 2251 DEB", "group": "cosmos-2251-debris", "lat": -52.62646098801803, "lon": 111.1580068131511, "alt_km": 593.1552883763907, "timestamp": "2025-12-20T16:47:36.678339+00:00", "meta": {"OBJECT_NAME": "COSMOS 2251 DEB", "OBJECT_ID": "1993-036HX", "EPOCH": "2025-12-20T10:37:15.917376", "MEAN_MOTION": 14.95534204, "ECCENTRICITY": 0.0010764, "INCLINATION": 74.0199, "RA_OF_ASC_NODE": 133.7122, "ARG_OF_PERICENTER": 163.4901, "MEAN_ANOMALY": 196.6636, "EPHEMERIS_TYPE": 0, "CLASSIFICATION_TYPE": "U", "NORAD_CAT_ID": 34036, "ELEMENT_SET_NO": 999, "REV_AT_EPOCH": 88685, "BSTAR": 0.0024988, "MEAN_MOTION_DOT": 0.00027809, "MEAN_MOTION_DDOT": 0}, "tle": {"line1": "1 34036U 93036HX  25354.44254534  .00027809  00000+0  24988-2 0  9995", "line2": "2 34036  74.0199 133.7122 0010764 163.4901 196.6636 14.95534204886858"}}, "geometry": {"type": "Point", "coordinates": [111.1580068131511, -52.62646098801803]}}, {"type": "Feature", "properties": {"norad_id": 34037, "name": "COSMOS 2251 DEB", "group": "cosmos-2251-debris", "lat": 63.376485859110495, "lon": 70.65707844017902, "alt_km": 733.7575679586353, "timestamp": "2025-12-20T16:47:36.678349+00:00", "meta": {"OBJECT_NAME": "COSMOS 2251 DEB", "OBJECT_ID": "1993-036HY", "EPOCH": "2025-12-20T09:47:01.891392", "MEAN_MOTION": 14.34683057, "ECCENTRICITY": 0.0051812, "INCLINATION": 74.0512, "RA_OF_ASC_NODE": 36.4084, "ARG_OF_PERICENTER": 84.0251, "MEAN_ANOMALY": 276.6803, "EPHEMERIS_TYPE": 0, "CLASSIFICATION_TYPE": "U", "NORAD_CAT_ID": 34037, "ELEMENT_SET_NO": 999, "REV_AT_EPOCH": 87827, "BSTAR": 0.00030728, "MEAN_MOTION_DOT": 8.57e-06, "MEAN_MOTION_DDOT": 0}, "tle": {"line1": "1 34037U 93036HY  25354.40766078  .00000857  00000+0  30728-3 0  9997", "line2": "2 34037  74.0512  36.4084 0051812  84.0251 276.6803 14.34683057878275"}}, "geometry": {"type": "Point", "coordinates": [70.65707844017902, 63.376485859110495]}}, {"type": "Feature", "properties": {"norad_id": 34040, "name": "COSMOS 2251 DEB", "group": "cosmos-2251-debris", "lat": -36.646579117506256, "lon": -114.9281282089565, "alt_km": 1219.0688671661537, "timestamp": "2025-12-20T16:47:36.678359+00:00", "meta": {"OBJECT_NAME": "COSMOS 2251 DEB", "OBJECT_ID": "1993-036JB", "EPOCH": "2025-12-19T13:24:10.918080", "MEAN_MOTION": 13.68384263, "ECCENTRICITY": 0.0343262, "INCLINATION": 73.9557, "RA_OF_ASC_NODE": 54.596, "ARG_OF_PERICENTER": 6.5752, "MEAN_ANOMALY": 353.9696, "EPHEMERIS_TYPE": 0, "CLASSIFICATION_TYPE": "U", "NORAD_CAT_ID": 34040, "ELEMENT_SET_NO": 999, "REV_AT_EPOCH": 83693, "BSTAR": 0.00048435, "MEAN_MOTION_DOT": 6.02e-06, "MEAN_MOTION_DDOT": 0}, "tle": {"line1": "1 34040U 93036JB  25353.55845970  .00000602  00000+0  48435-3 0  9997", "line2": "2 34040  73.9557  54.5960 0343262   6.5752 353.9696 13.68384263836937"}}, "geometry": {"type": "Point", "coordinates": [-114.9281282089565, -36.646579117506256]}}, {"type": "Feature", "properties": {"norad_id": 34045, "name": "COSMOS 2251 DEB", "group": "cosmos-2251-debris", "lat": 72.89313152327146, "lon": 47.854126652979595, "alt_km": 767.0988263871468, "timestamp": "2025-12-20T16:47:36.678369+00:00", "meta": {"OBJECT_NAME": "COSMOS 2251 DEB", "OBJECT_ID": "1993-036JG", "EPOCH": "2025-12-20T06:50:38.514336", "MEAN_MOTION": 14.34072738, "ECCENTRICITY": 0.0025974, "INCLINATION": 74.0395, "RA_OF_ASC_NODE": 297.0252, "ARG_OF_PERICENTER": 18.4028, "MEAN_ANOMALY": 98.1226, "EPHEMERIS_TYPE": 0, "CLASSIFICATION_TYPE": "U", "NORAD_CAT_ID": 34045, "ELEMENT_SET_NO": 999, "REV_AT_EPOCH": 88141, "BSTAR": 7.051e-05, "MEAN_MOTION_DOT": 1.72e-06, "MEAN_MOTION_DDOT": 0}, "tle": {"line1": "1 34045U 93036JG  25354.28516799  .00000172  00000+0  70510-4 0  9999", "line2": "2 34045  74.0395 297.0252 0025974  18.4028  98.1226 14.34072738881412"}}, "geometry": {"type": "Point", "coordinates": [47.854126652979595, 72.89313152327146]}}, {"type": "Feature", "properties": {"norad_id": 34046, "name": "COSMOS 2251 DEB", "group": "cosmos-2251-debris", "lat": 71.61476301165803, "lon": 55.048417396556516, "alt_km": 676.8949490280984, "timestamp": "2025-12-20T16:47:36.678379+00:00", "meta": {"OBJECT_NAME": "COSMOS 2251 DEB", "OBJECT_ID": "1993-036JH", "EPOCH": "2025-12-20T01:44:37.329792", "MEAN_MOTION": 14.46526924, "ECCENTRICITY": 0.00744564, "INCLINATION": 74.0389, "RA_OF_ASC_NODE": 356.7805, "ARG_OF_PERICENTER": 78.006, "MEAN_ANOMALY": 338.5486, "EPHEMERIS_TYPE": 0, "CLASSIFICATION_TYPE": "U", "NORAD_CAT_ID": 34046, "ELEMENT_SET_NO": 999, "REV_AT_EPOCH": 87932, "BSTAR": 0.00078666467, "MEAN_MOTION_DOT": 2.906e-05, "MEAN_MOTION_DDOT": 0}, "tle": {"line1": "1 34046U 93036JH  25354.07265428  .00002906  00000+0  78666-3 0  9993", "line2": "2 34046  74.0389 356.7805 0074456  78.0060 338.5486 14.46526924879320"}}, "geometry": {"type": "Point", "coordinates": [55.048417396556516, 71.61476301165803]}}, {"type": "Feature", "properties": {"norad_id": 34050, "name": "COSMOS 2251 DEB", "group": "cosmos-2251-debris", "lat": -43.984428286277776, "lon": -19.583083346444514, "alt_km": 950.1656319893318, "timestamp": "2025-12-20T16:47:36.678389+00:00", "meta": {"OBJECT_NAME": "COSMOS 2251 DEB", "OBJECT_ID": "1993-036JM", "EPOCH": "2025-12-20T06:46:31.279008", "MEAN_MOTION": 13.96196699, "ECCENTRICITY": 0.021468, "INCLINATION": 74.0882, "RA_OF_ASC_NODE": 357.1138, "ARG_OF_PERICENTER": 59.4901, "MEAN_ANOMALY": 319.4641, "EPHEMERIS_TYPE": 0, "CLASSIFICATION_TYPE": "U", "NORAD_CAT_ID": 34050, "ELEMENT_SET_NO": 999, "REV_AT_EPOCH": 85537, "BSTAR": 0.00054385, "MEAN_MOTION_DOT": 8.86e-06, "MEAN_MOTION_DDOT": 0}, "tle": {"line1": "1 34050U 93036JM  25354.28230647  .00000886  00000+0  54385-3 0  9993", "line2": "2 34050  74.0882 357.1138 0214680  59.4901 319.4641 13.96196699855375"}}, "geometry": {"type": "Point", "coordinates": [-19.583083346444514, -43.984428286277776]}}, {"type": "Feature", "properties": {"norad_id": 34053, "name": "COSMOS 2251 DEB", "group": "cosmos-2251-debris", "lat": 22.416850496912136, "lon": -123.78752898689464, "alt_km": 761.548473819138, "timestamp": "2025-12-20T16:47:36.678399+00:00", "meta": {"OBJECT_NAME": "COSMOS 2251 DEB", "OBJECT_ID": "1993-036JQ", "EPOCH": "2025-12-20T02:27:05.709024", "MEAN_MOTION": 13.49172153, "ECCENTRICITY": 0.0422654, "INCLINATION": 73.8434, "RA_OF_ASC_NODE": 230.3074, "ARG_OF_PERICENTER": 17.6495, "MEAN_ANOMALY": 343.8793, "EPHEMERIS_TYPE": 0, "CLASSIFICATION_TYPE": "U", "NORAD_CAT_ID": 34053, "ELEMENT_SET_NO": 999, "REV_AT_EPOCH": 82783, "BSTAR": 0.00051859465, "MEAN_MOTION_DOT": 5.44e-06, "MEAN_MOTION_DDOT": 0}, "tle": {"line1": "1 34053U 93036JQ  25354.10214941  .00000544  00000+0  51859-3 0  9990", "line2": "2 34053  73.8434 230.3074 0422654  17.6495 343.8793 13.49172153827831"}}, "geometry": {"type": "Point", "coordinates": [-123.78752898689464, 22.416850496912136]}}, {"type": "Feature", "properties": {"norad_id": 34056, "name": "COSMOS 2251 DEB", "group": "cosmos-2251-debris", "lat": 70.86683505617329, "lon": 117.61710016666956, "alt_km": 737.6593785612531, "timestamp": "2025-12-20T16:47:36.678409+00:00", "meta": {"OBJECT_NAME": "COSMOS 2251 DEB", "OBJECT_ID": "1993-036JT", "EPOCH": "2025-12-20T06:34:57.855072", "MEAN_MOTION": 14.20580967, "ECCENTRICITY": 0.012376, "INCLINATION": 74.0586, "RA_OF_ASC_NODE": 62.9046, "ARG_OF_PERICENTER": 108.7592, "MEAN_ANOMALY": 316.3034, "EPHEMERIS_TYPE": 0, "CLASSIFICATION_TYPE": "U", "NORAD_CAT_ID": 34056, "ELEMENT_SET_NO": 999, "REV_AT_EPOCH": 86518, "BSTAR": 0.00049342, "MEAN_MOTION_DOT": 1.122e-05, "MEAN_MOTION_DDOT": 0}, "tle": {"line1": "1 34056U 93036JT  25354.27428073  .00001122  00000+0  49342-3 0  9991", "line2": "2 34056  74.0586  62.9046 0123760 108.7592 316.3034 14.20580967865188"}}, "geometry": {"type": "Point", "coordinates": [117.61710016666956, 70.86683505617329]}}]}